NORAD_CAT_ID,OBJECT_NAME,OBJECT_TYPE,EPOCH,MEAN_MOTION,ECCENTRICITY,INCLINATION,RA_OF_ASC_NODE,ARG_OF_PERICENTER,MEAN_ANOMALY,BSTAR,MEAN_MOTION_DOT,MEAN_MOTION_DDOT,TLE_LINE0,TLE_LINE1,TLE_LINE2,SEMIMAJOR_AXIS,PERIOD,APOGEE,PERIGEE,DECAYED
51788.0,STARLINK-3641,PAYLOAD,2022-11-01 03:09:39,15.08853205,0.0001781999999999,53.2163,86.3842,55.0517,305.0642,7.5956e-05,9.21e-06,0.0,0 STARLINK-3641,1 51788U 22017W   22305.13170545  .00000921  00000-0  75956-4 0  9997,2 51788  53.2163  86.3842 0001782  55.0517 305.0642 15.08853205 39057,6917.84,95.437,540.938,538.472,0.0
51788.0,STARLINK-3641,PAYLOAD,2022-11-01 11:06:35,15.08838311,0.0001843,53.2161,84.8981,53.7875,306.3287,7.0498e-06,-1.76e-06,0.0,0 STARLINK-3641,1 51788U 22017W   22305.46291471 -.00000176  00000-0  70498-5 0  9995,2 51788  53.2161  84.8981 0001843  53.7875 306.3287 15.08838311 39108,6917.886,95.438,541.026,538.476,0.0
51788.0,STARLINK-3641,PAYLOAD,2022-11-01 15:52:44,15.08842602,0.0001657,53.2166,84.0052,56.5892,303.5258,3.0754000000000004e-05,2.01e-06,0.0,0 STARLINK-3641,1 51788U 22017W   22305.66163045  .00000201  00000-0  30754-4 0  9990,2 51788  53.2166  84.0052 0001657  56.5892 303.5258 15.08842602 39135,6917.871999999999,95.437,540.884,538.591,0.0
51788.0,STARLINK-3641,PAYLOAD,2022-11-02 04:35:49,15.08847658,0.0001798,53.2168,81.6273,52.3931,307.7224,0.00014897,2.084e-05,0.0,0 STARLINK-3641,1 51788U 22017W   22306.19154143  .00002084  00000-0  14897-3 0  9998,2 51788  53.2168  81.6273 0001798  52.3931 307.7224 15.08847658 39213,6917.857,95.437,540.966,538.4780000000002,0.0
51788.0,STARLINK-3641,PAYLOAD,2022-11-02 10:57:22,15.08834857,0.0001602,53.2172,80.437,41.5928,318.5186,5.537e-05,5.93e-06,0.0,0 STARLINK-3641,1 51788U 22017W   22306.45651195  .00000593  00000-0  55370-4 0  9991,2 51788  53.2172  80.4370 0001602  41.5928 318.5186 15.08834857 39251,6917.896,95.438,540.869,538.653,0.0
51788.0,STARLINK-3641,PAYLOAD,2022-11-03 10:48:08,15.08849231,0.0001664,53.2174,75.9774,43.3685,316.7438,0.00015001,2.101e-05,0.0,0 STARLINK-3641,1 51788U 22017W   22307.45010029  .00002101  00000-0  15001-3 0  9990,2 51788  53.2174  75.9774 0001664  43.3685 316.7438 15.08849231 39407,6917.852,95.437,540.868,538.566,0.0
51788.0,STARLINK-3641,PAYLOAD,2022-11-04 10:38:55,15.08849192,0.0001607,53.2174,71.5161,45.3926,314.7197,5.6117e-05,6.05e-06,0.0,0 STARLINK-3641,1 51788U 22017W   22308.44369787  .00000605  00000-0  56117-4 0  9999,2 51788  53.2174  71.5161 0001607  45.3926 314.7197 15.08849192 39558,6917.852,95.437,540.8290000000002,538.606,0.0
51788.0,STARLINK-3641,PAYLOAD,2022-11-04 15:25:07,15.08770982,0.0002098,53.2177,70.6252,53.7693,306.3493,0.0012482,0.00019596,0.0,0 STARLINK-3641,1 51788U 22017W   22308.64245329  .00019596  00000-0  12482-2 0  9990,2 51788  53.2177  70.6252 0002098  53.7693 306.3493 15.08770982 39580,6918.090999999999,95.442,541.408,538.505,0.0
51788.0,STARLINK-3641,PAYLOAD,2022-11-05 10:29:43,15.08834685,0.0001781,53.2175,67.0543,43.5888,316.5244,-8.7308e-05,-1.677e-05,0.0,0 STARLINK-3641,1 51788U 22017W   22309.43731199 -.00001677  00000-0 -87308-4 0  9997,2 51788  53.2175  67.0543 0001781  43.5888 316.5244 15.08834685 39704,6917.897,95.438,540.994,538.53,0.0
51788.0,STARLINK-3641,PAYLOAD,2022-11-06 02:23:36,15.08823538,0.0001736,53.2185,64.0838,35.9838,324.1271,-0.00011857,-2.174e-05,0.0,0 STARLINK-3641,1 51788U 22017W   22310.09972282 -.00002174  00000-0 -11857-3 0  9999,2 51788  53.2185  64.0838 0001736  35.9838 324.1271 15.08823538 39800,6917.931,95.439,540.997,538.595,0.0
51788.0,STARLINK-3641,PAYLOAD,2022-11-06 11:55:54,15.0883639,0.0001821,53.218,62.2991,37.1668,322.945,-3.047e-06,-3.37e-06,0.0,0 STARLINK-3641,1 51788U 22017W   22310.49715396 -.00000337  00000-0 -30470-5 0  9997,2 51788  53.2180  62.2991 0001821  37.1668 322.9450 15.08836390 39866,6917.891,95.438,541.016,538.497,0.0
51788.0,STARLINK-3641,PAYLOAD,2022-11-07 02:14:21,15.08849173,0.0001941,53.2169,59.6227,33.6952,326.4163,2.596800000000001e-05,1.25e-06,0.0,0 STARLINK-3641,1 51788U 22017W   22311.09330517  .00000125  00000-0  25968-4 0  9990,2 51788  53.2169  59.6227 0001941  33.6952 326.4163 15.08849173 39958,6917.852,95.437,541.06,538.375,0.0
51788.0,STARLINK-3641,PAYLOAD,2022-11-07 11:46:41,15.08831059,0.0001858,53.2178,57.8379,43.3673,316.7465,3.4023e-05,2.53e-06,0.0,0 STARLINK-3641,1 51788U 22017W   22311.49075863  .00000253  00000-0  34023-4 0  9998,2 51788  53.2178  57.8379 0001858  43.3673 316.7465 15.08831059 40011,6917.908,95.438,541.058,538.487,0.0
51788.0,STARLINK-3641,PAYLOAD,2022-11-07 16:32:51,15.08825885,0.0002018,53.2177,56.9459,45.3078,314.8078,0.00016007,2.259e-05,0.0,0 STARLINK-3641,1 51788U 22017W   22311.68948320  .00002259  00000-0  16007-3 0  9995,2 51788  53.2177  56.9459 0002018  45.3078 314.8078 15.08825885 40041,6917.924,95.438,541.185,538.3919999999998,0.0
51788.0,STARLINK-3641,PAYLOAD,2022-11-08 06:51:17,15.08852773,0.0002132,53.2172,54.2699,43.5076,316.6084,0.00024149,3.559e-05,0.0,0 STARLINK-3641,1 51788U 22017W   22312.28562474  .00003559  00000-0  24149-3 0  9994,2 51788  53.2172  54.2699 0002132  43.5076 316.6084 15.08852773 40131,6917.840999999999,95.437,541.181,538.231,0.0
51788.0,STARLINK-3641,PAYLOAD,2022-11-08 08:26:40,15.08855387,0.0002089,53.2186,53.9743,33.1173,326.995,0.00027287,4.059e-05,0.0,0 STARLINK-3641,1 51788U 22017W   22312.35186317  .00004059  00000-0  27287-3 0  9992,2 51788  53.2186  53.9743 0002089  33.1173 326.9950 15.08855387 40147,6917.833000000001,95.437,541.143,538.253,0.0
51788.0,STARLINK-3641,PAYLOAD,2022-11-09 01:55:54,15.08876984,0.0002239,53.2181,50.7025,38.1954,321.9196,0.00042003,6.409999999999999e-05,0.0,0 STARLINK-3641,1 51788U 22017W   22313.08048962  .00006410  00000-0  42003-3 0  9992,2 51788  53.2181  50.7025 0002239  38.1954 321.9196 15.08876984 40254,6917.767,95.435,541.181,538.0830000000002,0.0
51788.0,STARLINK-3641,PAYLOAD,2022-11-09 13:03:36,15.08851035,0.0002198,53.2178,48.6209,40.4203,319.6952,-0.00013051,-2.365e-05,0.0,0 STARLINK-3641,1 51788U 22017W   22313.54417199 -.00002365  00000-0 -13051-3 0  9993,2 51788  53.2178  48.6209 0002198  40.4203 319.6952 15.08851035 40329,6917.847,95.437,541.232,538.191,0.0
51788.0,STARLINK-3641,PAYLOAD,2022-11-10 03:22:05,15.08831743,0.0002168,53.2175,45.9441,33.4638,326.649,5.9463e-05,6.58e-06,0.0,0 STARLINK-3641,1 51788U 22017W   22314.14034122  .00000658  00000-0  59463-4 0  9990,2 51788  53.2175  45.9441 0002168  33.4638 326.6490 15.08831743 40414,6917.906,95.438,541.27,538.271,0.0
51788.0,STARLINK-3641,PAYLOAD,2022-11-10 12:54:24,15.08822324,0.0002148,53.2175,44.1602,39.1861,320.9286,-0.00015947,-2.824e-05,0.0,0 STARLINK-3641,1 51788U 22017W   22314.53778780 -.00002824  00000-0 -15947-3 0  9995,2 51788  53.2175  44.1602 0002148  39.1861 320.9286 15.08822324 40474,6917.934,95.439,541.285,538.313,0.0
51788.0,STARLINK-3641,PAYLOAD,2022-11-11 06:23:41,15.0879938,0.0002176,53.2175,40.8897,40.1143,320.0009,-0.00020388,-3.528e-05,0.0,0 STARLINK-3641,1 51788U 22017W   22315.26645052 -.00003528  00000-0 -20388-3 0  9998,2 51788  53.2175  40.8897 0002176  40.1143 320.0009 15.08799380 40580,6918.005,95.44,541.375,538.364,0.0
51788.0,STARLINK-3641,PAYLOAD,2022-11-11 12:45:14,15.08809013,0.0002203,53.2174,39.7005,41.333,318.7828,4.3375e-06,-2.19e-06,0.0,0 STARLINK-3641,1 51788U 22017W   22315.53141621 -.00000219  00000-0  43375-5 0  9997,2 51788  53.2174  39.7005 0002203  41.3330 318.7828 15.08809013 40622,6917.975,95.44,541.364,538.316,0.0
51788.0,STARLINK-3641,PAYLOAD,2022-11-12 06:14:28,15.08831548,0.0002137,53.2172,36.4293,38.372,321.7423,0.00043341,6.615e-05,0.0,0 STARLINK-3641,1 51788U 22017W   22316.26005491  .00006615  00000-0  43341-3 0  9998,2 51788  53.2172  36.4293 0002137  38.3720 321.7423 15.08831548 40733,6917.906,95.438,541.25,538.293,0.0
51788.0,STARLINK-3641,PAYLOAD,2022-11-12 12:36:01,15.08836398,0.0002163,53.2175,35.2397,38.4843,321.6303,0.00041038,6.248e-05,0.0,0 STARLINK-3641,1 51788U 22017W   22316.52501305  .00006248  00000-0  41038-3 0  9995,2 51788  53.2175  35.2397 0002163  38.4843 321.6303 15.08836398 40772,6917.891,95.438,541.253,538.26,0.0
51788.0,STARLINK-3641,PAYLOAD,2022-11-13 09:16:01,15.08841045,0.000233,53.2167,31.375,33.0081,327.1056,0.00018276,2.622e-05,0.0,0 STARLINK-3641,1 51788U 22017W   22317.38613289  .00002622  00000-0  18276-3 0  9995,2 51788  53.2167  31.3750 0002330  33.0081 327.1056 15.08841045 40900,6917.877,95.437,541.354,538.13,0.0
51788.0,STARLINK-3641,PAYLOAD,2022-11-13 14:02:11,15.08841088,0.0002128,53.2174,30.4823,36.6999,323.4138,0.00010543,1.39e-05,0.0,0 STARLINK-3641,1 51788U 22017W   22317.58485024  .00001390  00000-0  10543-3 0  9991,2 51788  53.2174  30.4823 0002128  36.6999 323.4138 15.08841088 40931,6917.877,95.437,541.214,538.27,0.0
51788.0,STARLINK-3641,PAYLOAD,2022-11-14 10:42:11,15.0884402,0.0001965,53.2174,26.616,36.1449,323.9676,7.0669e-05,8.37e-06,0.0,0 STARLINK-3641,1 51788U 22017W   22318.44597087  .00000837  00000-0  70669-4 0  9991,2 51788  53.2174  26.6160 0001965  36.1449 323.9676 15.08844020 41061,6917.868,95.437,541.092,538.374,0.0
51788.0,STARLINK-3641,PAYLOAD,2022-11-14 13:52:58,15.08846592,0.0002149,53.2173,26.0221,31.1808,328.9311,0.0001077,1.427e-05,0.0,0 STARLINK-3641,1 51788U 22017W   22318.57845029  .00001427  00000-0  10770-3 0  9999,2 51788  53.2173  26.0221 0002149  31.1808 328.9311 15.08846592 41080,6917.86,95.437,541.212,538.239,0.0
51788.0,STARLINK-3641,PAYLOAD,2022-11-14 21:49:53,15.08852766,0.0002174,53.2172,24.536,29.2658,330.8455,0.0002633,3.906e-05,0.0,0 STARLINK-3641,1 51788U 22017W   22318.90964588  .00003906  00000-0  26330-3 0  9991,2 51788  53.2172  24.5360 0002174  29.2658 330.8455 15.08852766 41132,6917.840999999999,95.437,541.21,538.202,0.0
51788.0,STARLINK-3641,PAYLOAD,2022-11-15 05:46:49,15.08844595,0.0002024,53.2171,23.0485,34.4651,325.6472,0.00013868,1.92e-05,0.0,0 STARLINK-3641,1 51788U 22017W   22319.24084813  .00001920  00000-0  13868-3 0  9999,2 51788  53.2171  23.0485 0002024  34.4651 325.6472 15.08844595 41185,6917.866,95.437,541.132,538.331,0.0
